IRIDIUM 63              
1 25286U 98021B   25049.27182385  .00000729  00000+0  24259-3 0  9991
2 25286  86.4012 132.0234 0002024  94.5916 265.5512 14.36382836406777
IRIDIUM 69              
1 25319U 98026A   25049.50908606  .00001307  00000+0  40269-3 0  9993
2 25319  86.4030 145.5588 0004175  75.4374 284.7288 14.40764970405972
IRIDIUM 71              
1 25320U 98026B   25049.53233756  .00000916  00000+0  27917-3 0  9995
2 25320  86.4020 140.2662 0004208 107.3752 252.7908 14.40979577406505
IRIDIUM 73              
1 25344U 98032C   25049.49590204  .00001092  00000+0  26874-3 0  9994
2 25344  86.4376  97.2456 0002766  82.0550 278.0969 14.51437331413346
IRIDIUM 82              
1 25467U 98051A   25049.28635407  .00034276  00000+0  12023-2 0  9993
2 25467  86.3760 167.8334 0098829  26.7305 333.8984 15.24659754405798
